ADRAS-J                 
1 58992U 24034A   24179.82675916  .00004748  00000+0  44095-3 0  9990
2 58992  98.2127 153.3278 0044397  16.4374 343.8272 14.94167063 19454
